{
  "type": "FeatureCollection",
  "features": [
    {
      "type": "Feature",
      "properties": {
        "norad_id": 31620,
        "name": "FENGYUN 1C DEB",
        "group": "fengyun-1c-debris",
        "lat": -56.99192463271001,
        "lon": 76.9766640822042,
        "alt_km": 784.3044063071984,
        "timestamp": "2025-12-05T04:52:15.574972+00:00",
        "meta_object_name": "FENGYUN 1C DEB",
        "meta_object_id": "1999-025CAA",
        "meta_epoch": "2025-11-29T12:06:32.784768",
        "meta_mean_motion": 14.36942197,
        "meta_eccentricity": 0.0021449,
        "meta_inclination": 98.8876,
        "meta_ra_of_asc_node": 57.1565,
        "meta_arg_of_pericenter": 84.3152,
        "meta_mean_anomaly": 276.0479,
        "meta_ephemeris_type": 0,
        "meta_classification_type": "U",
        "meta_norad_cat_id": 31620,
        "meta_element_set_no": 999,
        "meta_rev_at_epoch": 65654,
        "meta_bstar": 0.0022206597,
        "meta_mean_motion_dot": 6.551e-05,
        "meta_mean_motion_ddot": 0,
        "tle_line1": "1 31620U 99025CAA 25333.50454612  .00006551  00000+0  22207-2 0  9991",
        "tle_line2": "2 31620  98.8876  57.1565 0021449  84.3152 276.0479 14.36942197656549"
      },
      "geometry": {
        "type": "Point",
        "coordinates": [
          76.9766640822042,
          -56.99192463271001
        ]
      }
    },
    {
      "type": "Feature",
      "properties": {
        "norad_id": 31622,
        "name": "FENGYUN 1C DEB",
        "group": "fengyun-1c-debris",
        "lat": -69.97112274678493,
        "lon": 98.99233873843828,
        "alt_km": 773.5641265644599,
        "timestamp": "2025-12-05T04:52:15.574982+00:00",
        "meta_object_name": "FENGYUN 1C DEB",
        "meta_object_id": "1999-025CAC",
        "meta_epoch": "2025-12-03T05:04:08.263200",
        "meta_mean_motion": 14.37001244,
        "meta_eccentricity": 0.0015007,
        "meta_inclination": 98.8177,
        "meta_ra_of_asc_node": 71.7505,
        "meta_arg_of_pericenter": 13.3002,
        "meta_mean_anomaly": 56.9899,
        "meta_ephemeris_type": 0,
        "meta_classification_type": "U",
        "meta_norad_cat_id": 31622,
        "meta_element_set_no": 999,
        "meta_rev_at_epoch": 95635,
        "meta_bstar": 0.0027163,
        "meta_mean_motion_dot": 8.025e-05,
        "meta_mean_motion_ddot": 0,
        "tle_line1": "1 31622U 99025CAC 25337.21120675  .00008025  00000+0  27163-2 0  9998",
        "tle_line2": "2 31622  98.8177  71.7505 0015007  13.3002  56.9899 14.37001244956353"
      },
      "geometry": {
        "type": "Point",
        "coordinates": [
          98.99233873843828,
          -69.97112274678493
        ]
      }
    },
    {
      "type": "Feature",
      "properties": {
        "norad_id": 31623,
        "name": "FENGYUN 1C DEB",
        "group": "fengyun-1c-debris",
        "lat": -76.72486049495356,
        "lon": -22.418839948551003,
        "alt_km": 1048.5844279019639,
        "timestamp": "2025-12-05T04:52:15.574991+00:00",
        "meta_object_name": "FENGYUN 1C DEB",
        "meta_object_id": "1999-025CAD",
        "meta_epoch": "2025-12-02T20:02:22.350624",
        "meta_mean_motion": 13.82580933,
        "meta_eccentricity": 0.01951152,
        "meta_inclination": 97.6304,
        "meta_ra_of_asc_node": 190.283,
        "meta_arg_of_pericenter": 33.7651,
        "meta_mean_anomaly": 327.5758,
        "meta_ephemeris_type": 0,
        "meta_classification_type": "U",
        "meta_norad_cat_id": 31623,
        "meta_element_set_no": 999,
        "meta_rev_at_epoch": 57783,
        "meta_bstar": 0.00047153491,
        "meta_mean_motion_dot": 5.61e-06,
        "meta_mean_motion_ddot": 0,
        "tle_line1": "1 31623U 99025CAD 25336.83498091  .00000561  00000+0  47153-3 0  9995",
        "tle_line2": "2 31623  97.6304 190.2830 0195115  33.7651 327.5758 13.82580933577835"
      },
      "geometry": {
        "type": "Point",
        "coordinates": [
          -22.418839948551003,
          -76.72486049495356
        ]
      }
    },
    {
      "type": "Feature",
      "properties": {
        "norad_id": 31625,
        "name": "FENGYUN 1C DEB",
        "group": "fengyun-1c-debris",
        "lat": 44.03716721740262,
        "lon": -106.55945697172363,
        "alt_km": 715.0183770711456,
        "timestamp": "2025-12-05T04:52:15.575000+00:00",
        "meta_object_name": "FENGYUN 1C DEB",
        "meta_object_id": "1999-025CAF",
        "meta_epoch": "2025-12-03T11:17:03.153696",
        "meta_mean_motion": 14.55374989,
        "meta_eccentricity": 0.01498471,
        "meta_inclination": 98.8069,
        "meta_ra_of_asc_node": 62.9923,
        "meta_arg_of_pericenter": 43.8947,
        "meta_mean_anomaly": 16.2225,
        "meta_ephemeris_type": 0,
        "meta_classification_type": "U",
        "meta_norad_cat_id": 31625,
        "meta_element_set_no": 999,
        "meta_rev_at_epoch": 98258,
        "meta_bstar": 0.00022186137,
        "meta_mean_motion_dot": 1.061e-05,
        "meta_mean_motion_ddot": 0,
        "tle_line1": "1 31625U 99025CAF 25337.47017539  .00001061  00000+0  22186-3 0  9997",
        "tle_line2": "2 31625  98.8069  62.9923 0149847  43.8947  16.2225 14.55374989982583"
      },
      "geometry": {
        "type": "Point",
        "coordinates": [
          -106.55945697172363,
          44.03716721740262
        ]
      }
    },
    {
      "type": "Feature",
      "properties": {
        "norad_id": 31627,
        "name": "FENGYUN 1C DEB",
        "group": "fengyun-1c-debris",
        "lat": -5.1730778848253784,
        "lon": -153.61817712066033,
        "alt_km": 740.6712298960219,
        "timestamp": "2025-12-05T04:52:15.575009+00:00",
        "meta_object_name": "FENGYUN 1C DEB",
        "meta_object_id": "1999-025CAH",
        "meta_epoch": "2025-11-26T09:13:22.975680",
        "meta_mean_motion": 14.35408996,
        "meta_eccentricity": 0.00515931,
        "meta_inclination": 98.5313,
        "meta_ra_of_asc_node": 18.4415,
        "meta_arg_of_pericenter": 201.9005,
        "meta_mean_anomaly": 157.9975,
        "meta_ephemeris_type": 0,
        "meta_classification_type": "U",
        "meta_norad_cat_id": 31627,
        "meta_element_set_no": 999,
        "meta_rev_at_epoch": 64532,
        "meta_bstar": 0.0013473839,
        "meta_mean_motion_dot": 3.885e-05,
        "meta_mean_motion_ddot": 0,
        "tle_line1": "1 31627U 99025CAH 25330.38429370  .00003885  00000+0  13474-2 0  9997",
        "tle_line2": "2 31627  98.5313  18.4415 0051593 201.9005 157.9975 14.35408996645325"
      },
      "geometry": {
        "type": "Point",
        "coordinates": [
          -153.61817712066033,
          -5.1730778848253784
        ]
      }
    },
    {
      "type": "Feature",
      "properties": {
        "norad_id": 31628,
        "name": "FENGYUN 1C DEB",
        "group": "fengyun-1c-debris",
        "lat": 25.93857965890552,
        "lon": -174.36719354933823,
        "alt_km": 1044.2917086185162,
        "timestamp": "2025-12-05T04:52:15.575018+00:00",
        "meta_object_name": "FENGYUN 1C DEB",
        "meta_object_id": "1999-025CAJ",
        "meta_epoch": "2025-12-04T07:57:44.419104",
        "meta_mean_motion": 13.86765315,
        "meta_eccentricity": 0.0169894,
        "meta_inclination": 102.2698,
        "meta_ra_of_asc_node": 190.5697,
        "meta_arg_of_pericenter": 240.2521,
        "meta_mean_anomaly": 118.1627,
        "meta_ephemeris_type": 0,
        "meta_classification_type": "U",
        "meta_norad_cat_id": 31628,
        "meta_element_set_no": 999,
        "meta_rev_at_epoch": 93183,
        "meta_bstar": 0.0044676,
        "meta_mean_motion_dot": 5.772e-05,
        "meta_mean_motion_ddot": 0,
        "tle_line1": "1 31628U 99025CAJ 25338.33176411  .00005772  00000+0  44676-2 0  9991",
        "tle_line2": "2 31628 102.2698 190.5697 0169894 240.2521 118.1627 13.86765315931835"
      },
      "geometry": {
        "type": "Point",
        "coordinates": [
          -174.36719354933823,
          25.93857965890552
        ]
      }
    },
    {
      "type": "Feature",
      "properties": {
        "norad_id": 31629,
        "name": "FENGYUN 1C DEB",
        "group": "fengyun-1c-debris",
        "lat": -60.485152202188985,
        "lon": -179.87732553980024,
        "alt_km": 923.2118080137479,
        "timestamp": "2025-12-05T04:52:15.575027+00:00",
        "meta_object_name": "FENGYUN 1C DEB",
        "meta_object_id": "1999-025CAK",
        "meta_epoch": "2025-12-01T08:03:40.160736",
        "meta_mean_motion": 14.14467327,
        "meta_eccentricity": 0.01042289,
        "meta_inclination": 102.1346,
        "meta_ra_of_asc_node": 17.2227,
        "meta_arg_of_pericenter": 56.4579,
        "meta_mean_anomaly": 304.6484,
        "meta_ephemeris_type": 0,
        "meta_classification_type": "U",
        "meta_norad_cat_id": 31629,
        "meta_element_set_no": 999,
        "meta_rev_at_epoch": 94285,
        "meta_bstar": 0.0028263297,
        "meta_mean_motion_dot": 5.641e-05,
        "meta_mean_motion_ddot": 0,
        "tle_line1": "1 31629U 99025CAK 25335.33588149  .00005641  00000+0  28263-2 0  9993",
        "tle_line2": "2 31629 102.1346  17.2227 0104228  56.4579 304.6484 14.14467327942850"
      },
      "geometry": {
        "type": "Point",
        "coordinates": [
          -179.87732553980024,
          -60.485152202188985
        ]
      }
    }
  ]
}